IRIDIUM 136             
1 42962U 17061H   24149.59080204  .00000147  00000+0  45345-4 0  9992
2 42962  86.3951 338.5156 0001801  50.9055 309.2301 14.34219809347397
